[{"OBJECT_NAME":"HIBARI","OBJECT_ID":"2021-102F","EPOCH":"2026-03-09T16:55:51.090816","MEAN_MOTION":15.29554512,"ECCENTRICITY":0.00120742,"INCLINATION":97.3381,"RA_OF_ASC_NODE":115.826,"ARG_OF_PERICENTER":186.5211,"MEAN_ANOMALY":173.5875,"EPHEMERIS_TYPE":0,"CLASSIFICATION_TYPE":"U","NORAD_CAT_ID":49400,"ELEMENT_SET_NO":999,"REV_AT_EPOCH":23897,"BSTAR":0.00042758039,"MEAN_MOTION_DOT":0.00012206,"MEAN_MOTION_DDOT":0},{"OBJECT_NAME":"STARLINK-34996","OBJECT_ID":"2025-176AB","EPOCH":"2026-03-09T12:24:39.098016","MEAN_MOTION":15.30177434,"ECCENTRICITY":0.00012545,"INCLINATION":53.1572,"RA_OF_ASC_NODE":153.5555,"ARG_OF_PERICENTER":95.2899,"MEAN_ANOMALY":264.8244,"EPHEMERIS_TYPE":0,"CLASSIFICATION_TYPE":"U","NORAD_CAT_ID":65223,"ELEMENT_SET_NO":999,"REV_AT_EPOCH":3309,"BSTAR":0.001334785,"MEAN_MOTION_DOT":0.00039355,"MEAN_MOTION_DDOT":0}]
